{"type": "FeatureCollection", "features": [ {"type": "Feature", "properties": {"norad_id": 39122, "name": "EUTELSAT 117 WEST A", "group": "eutelsat", "lat": -0.03170982774166308, "lon": -99.26722002822262, "alt_km": 35775.25275807715, "timestamp": "2025-12-24T18:55:55.728862+00:00", "meta": {"OBJECT_NAME": "EUTELSAT 117 WEST A", "OBJECT_ID": "2013-012A", "EPOCH": "2025-12-24T05:59:38.935680", "MEAN_MOTION": 1.00270856, "ECCENTRICITY": 0.00027022, "INCLINATION": 0.0212, "RA_OF_ASC_NODE": 315.8124, "ARG_OF_PERICENTER": 319.5212, "MEAN_ANOMALY": 150.8139, "EPHEMERIS_TYPE": 0, "CLASSIFICATION_TYPE": "U", "NORAD_CAT_ID": 39122, "ELEMENT_SET_NO": 999, "REV_AT_EPOCH": 4667, "BSTAR": 0, "MEAN_MOTION_DOT": 8e-08, "MEAN_MOTION_DDOT": 0}, "tle": {"line1": "1 39122U 13012A   25358.24975620  .00000008  00000+0  00000+0 0  9998", "line2": "2 39122   0.0212 315.8124 0002702 319.5212 150.8139  1.00270856 46671"}}, "geometry": {"type": "Point", "coordinates": [-99.26722002822262, -0.03170982774166308]}}, {"type": "Feature", "properties": {"norad_id": 39163, "name": "EUTELSAT 7B", "group": "eutelsat", "lat": 0.02451288821982216, "lon": 24.57282760113495, "alt_km": 35777.20262868068, "timestamp": "2025-12-24T18:55:55.728875+00:00", "meta": {"OBJECT_NAME": "EUTELSAT 7B", "OBJECT_ID": "2013-022A", "EPOCH": "2025-12-24T06:17:06.804384", "MEAN_MOTION": 1.00271515, "ECCENTRICITY": 0.00045642, "INCLINATION": 0.0658, "RA_OF_ASC_NODE": 7.5423, "ARG_OF_PERICENTER": 314.8563, "MEAN_ANOMALY": 231.9115, "EPHEMERIS_TYPE": 0, "CLASSIFICATION_TYPE": "U", "NORAD_CAT_ID": 39163, "ELEMENT_SET_NO": 999, "REV_AT_EPOCH": 4619, "BSTAR": 0, "MEAN_MOTION_DOT": 6.9e-07, "MEAN_MOTION_DDOT": 0}, "tle": {"line1": "1 39163U 13022A   25358.26188431  .00000069  00000+0  00000+0 0  9999", "line2": "2 39163   0.0658   7.5423 0004564 314.8563 231.9115  1.00271515 46197"}}, "geometry": {"type": "Point", "coordinates": [24.57282760113495, 0.02451288821982216]}}, {"type": "Feature", "properties": {"norad_id": 39612, "name": "EXPRESS-AT1", "group": "eutelsat", "lat": 0.015038707330771128, "lon": 73.52416513773878, "alt_km": 35783.482075996915, "timestamp": "2025-12-24T18:55:55.728905+00:00", "meta": {"OBJECT_NAME": "EXPRESS-AT1", "OBJECT_ID": "2014-010A", "EPOCH": "2025-12-24T02:18:38.733696", "MEAN_MOTION": 1.00271168, "ECCENTRICITY": 9.11e-05, "INCLINATION": 0.0142, "RA_OF_ASC_NODE": 288.2114, "ARG_OF_PERICENTER": 190.815, "MEAN_ANOMALY": 64.5094, "EPHEMERIS_TYPE": 0, "CLASSIFICATION_TYPE": "U", "NORAD_CAT_ID": 39612, "ELEMENT_SET_NO": 999, "REV_AT_EPOCH": 4306, "BSTAR": 0, "MEAN_MOTION_DOT": 1e-06, "MEAN_MOTION_DDOT": 0}, "tle": {"line1": "1 39612U 14010A   25358.09628164  .00000100  00000+0  00000+0 0  9995", "line2": "2 39612   0.0142 288.2114 0000911 190.8150  64.5094  1.00271168 43068"}}, "geometry": {"type": "Point", "coordinates": [73.52416513773878, 0.015038707330771128]}}, {"type": "Feature", "properties": {"norad_id": 39613, "name": "EXPRESS-AT2", "group": "eutelsat", "lat": 0.001195181881902808, "lon": 157.3860883833277, "alt_km": 35789.66824835158, "timestamp": "2025-12-24T18:55:55.728929+00:00", "meta": {"OBJECT_NAME": "EXPRESS-AT2", "OBJECT_ID": "2014-010B", "EPOCH": "2025-12-24T05:14:10.338144", "MEAN_MOTION": 1.00273009, "ECCENTRICITY": 0.00015262, "INCLINATION": 0.0153, "RA_OF_ASC_NODE": 314.0505, "ARG_OF_PERICENTER": 330.1441, "MEAN_ANOMALY": 27.2081, "EPHEMERIS_TYPE": 0, "CLASSIFICATION_TYPE": "U", "NORAD_CAT_ID": 39613, "ELEMENT_SET_NO": 999, "REV_AT_EPOCH": 4274, "BSTAR": 0, "MEAN_MOTION_DOT": -2.6e-06, "MEAN_MOTION_DDOT": 0}, "tle": {"line1": "1 39613U 14010B   25358.21817521 -.00000260  00000+0  00000+0 0  9995", "line2": "2 39613   0.0153 314.0505 0001526 330.1441  27.2081  1.00273009 42740"}}, "geometry": {"type": "Point", "coordinates": [157.3860883833277, 0.001195181881902808]}}, {"type": "Feature", "properties": {"norad_id": 39773, "name": "EUTELSAT 3B", "group": "eutelsat", "lat": 0.0379926907729514, "lon": 20.672365465436048, "alt_km": 35801.43756455814, "timestamp": "2025-12-24T18:55:55.728944+00:00", "meta": {"OBJECT_NAME": "EUTELSAT 3B", "OBJECT_ID": "2014-030A", "EPOCH": "2025-12-24T06:15:59.412384", "MEAN_MOTION": 1.00272567, "ECCENTRICITY": 0.00043423, "INCLINATION": 0.0612, "RA_OF_ASC_NODE": 347.6458, "ARG_OF_PERICENTER": 244.272, "MEAN_ANOMALY": 318.2288, "EPHEMERIS_TYPE": 0, "CLASSIFICATION_TYPE": "U", "NORAD_CAT_ID": 39773, "ELEMENT_SET_NO": 999, "REV_AT_EPOCH": 4231, "BSTAR": 0, "MEAN_MOTION_DOT": 4.1e-07, "MEAN_MOTION_DDOT": 0}, "tle": {"line1": "1 39773U 14030A   25358.26110431  .00000041  00000+0  00000+0 0  9991", "line2": "2 39773   0.0612 347.6458 0004342 244.2720 318.2288  1.00272567 42313"}}, "geometry": {"type": "Point", "coordinates": [20.672365465436048, 0.0379926907729514]}}, {"type": "Feature", "properties": {"norad_id": 40425, "name": "EUTELSAT 115 WEST B", "group": "eutelsat", "lat": 0.005234931568162071, "lon": -97.3913657783996, "alt_km": 35785.93071167754, "timestamp": "2025-12-24T18:55:55.728961+00:00", "meta": {"OBJECT_NAME": "EUTELSAT 115 WEST B", "OBJECT_ID": "2015-010B", "EPOCH": "2025-12-24T05:59:38.935680", "MEAN_MOTION": 1.00270958, "ECCENTRICITY": 1.68e-05, "INCLINATION": 0.0109, "RA_OF_ASC_NODE": 152.1321, "ARG_OF_PERICENTER": 169.5884, "MEAN_ANOMALY": 106.2964, "EPHEMERIS_TYPE": 0, "CLASSIFICATION_TYPE": "U", "NORAD_CAT_ID": 40425, "ELEMENT_SET_NO": 999, "REV_AT_EPOCH": 3963, "BSTAR": 0, "MEAN_MOTION_DOT": -4e-08, "MEAN_MOTION_DDOT": 0}, "tle": {"line1": "1 40425U 15010B   25358.24975620 -.00000004  00000+0  00000+0 0  9993", "line2": "2 40425   0.0109 152.1321 0000168 169.5884 106.2964  1.00270958 39639"}}, "geometry": {"type": "Point", "coordinates": [-97.3913657783996, 0.005234931568162071]}}, {"type": "Feature", "properties": {"norad_id": 40875, "name": "EUTELSAT 8 WEST B", "group": "eutelsat", "lat": 0.0025548529286313067, "lon": 9.580803910359977, "alt_km": 35787.9947735821, "timestamp": "2025-12-24T18:55:55.728973+00:00", "meta": {"OBJECT_NAME": "EUTELSAT 8 WEST B", "OBJECT_ID": "2015-039B", "EPOCH": "2025-12-24T06:12:52.211232", "MEAN_MOTION": 1.00271266, "ECCENTRICITY": 0.00042328, "INCLINATION": 0.0641, "RA_OF_ASC_NODE": 6.9443, "ARG_OF_PERICENTER": 266.9132, "MEAN_ANOMALY": 264.3953, "EPHEMERIS_TYPE": 0, "CLASSIFICATION_TYPE": "U", "NORAD_CAT_ID": 40875, "ELEMENT_SET_NO": 999, "REV_AT_EPOCH": 3790, "BSTAR": 0, "MEAN_MOTION_DOT": -4.5e-07, "MEAN_MOTION_DDOT": 0}, "tle": {"line1": "1 40875U 15039B   25358.25893763 -.00000045  00000+0  00000+0 0  9996", "line2": "2 40875   0.0641   6.9443 0004232 266.9132 264.3953  1.00271266 37909"}}, "geometry": {"type": "Point", "coordinates": [9.580803910359977, 0.0025548529286313067]}}, {"type": "Feature", "properties": {"norad_id": 41310, "name": "EUTELSAT 9B", "group": "eutelsat", "lat": -0.0022864701931006306, "lon": 26.598556599061123, "alt_km": 35793.742817925704, "timestamp": "2025-12-24T18:55:55.728985+00:00", "meta": {"OBJECT_NAME": "EUTELSAT 9B", "OBJECT_ID": "2016-005A", "EPOCH": "2025-12-24T06:17:44.244960", "MEAN_MOTION": 1.00272813, "ECCENTRICITY": 0.00045278, "INCLINATION": 0.023, "RA_OF_ASC_NODE": 38.5865, "ARG_OF_PERICENTER": 233.3148, "MEAN_ANOMALY": 284.5874, "EPHEMERIS_TYPE": 0, "CLASSIFICATION_TYPE": "U", "NORAD_CAT_ID": 41310, "ELEMENT_SET_NO": 999, "REV_AT_EPOCH": 3636, "BSTAR": 0, "MEAN_MOTION_DOT": 8.3e-07, "MEAN_MOTION_DDOT": 0}, "tle": {"line1": "1 41310U 16005A   25358.26231765  .00000083  00000+0  00000+0 0  9995", "line2": "2 41310   0.0230  38.5865 0004527 233.3148 284.5874  1.00272813 36363"}}, "geometry": {"type": "Point", "coordinates": [26.598556599061123, -0.0022864701931006306]}}, {"type": "Feature", "properties": {"norad_id": 41382, "name": "EUTELSAT 65 WEST A", "group": "eutelsat", "lat": -0.03980454229676237, "lon": -47.630854874039194, "alt_km": 35778.38350343054, "timestamp": "2025-12-24T18:55:55.728997+00:00", "meta": {"OBJECT_NAME": "EUTELSAT 65 WEST A", "OBJECT_ID": "2016-014A", "EPOCH": "2025-12-24T00:43:23.206080", "MEAN_MOTION": 1.00272444, "ECCENTRICITY": 0.00022288, "INCLINATION": 0.0493, "RA_OF_ASC_NODE": 341.2447, "ARG_OF_PERICENTER": 294.7713, "MEAN_ANOMALY": 122.4597, "EPHEMERIS_TYPE": 0, "CLASSIFICATION_TYPE": "U", "NORAD_CAT_ID": 41382, "ELEMENT_SET_NO": 999, "REV_AT_EPOCH": 3577, "BSTAR": 0, "MEAN_MOTION_DOT": -2.55e-06, "MEAN_MOTION_DDOT": 0}, "tle": {"line1": "1 41382U 16014A   25358.03012970 -.00000255  00000+0  00000+0 0  9996", "line2": "2 41382   0.0493 341.2447 0002228 294.7713 122.4597  1.00272444 35774"}}, "geometry": {"type": "Point", "coordinates": [-47.630854874039194, -0.03980454229676237]}}, {"type": "Feature", "properties": {"norad_id": 41589, "name": "EUTELSAT 117 WEST B", "group": "eutelsat", "lat": 0.003998387853089743, "lon": -99.48812701361018, "alt_km": 35785.93035326703, "timestamp": "2025-12-24T18:55:55.729009+00:00", "meta": {"OBJECT_NAME": "EUTELSAT 117 WEST B", "OBJECT_ID": "2016-038B", "EPOCH": "2025-12-23T15:59:57.810912", "MEAN_MOTION": 1.00269264, "ECCENTRICITY": 2.679e-05, "INCLINATION": 0.0112, "RA_OF_ASC_NODE": 151.1868, "ARG_OF_PERICENTER": 153.5075, "MEAN_ANOMALY": 270.7383, "EPHEMERIS_TYPE": 0, "CLASSIFICATION_TYPE": "U", "NORAD_CAT_ID": 41589, "ELEMENT_SET_NO": 999, "REV_AT_EPOCH": 3490, "BSTAR": 0, "MEAN_MOTION_DOT": 1e-07, "MEAN_MOTION_DDOT": 0}, "tle": {"line1": "1 41589U 16038B   25357.66664133  .00000010  00000+0  00000+0 0  9991", "line2": "2 41589   0.0112 151.1868 0000267 153.5075 270.7383  1.00269264 34900"}}, "geometry": {"type": "Point", "coordinates": [-99.48812701361018, 0.003998387853089743]}}]}